NORAD_CAT_ID,OBJECT_NAME,OBJECT_TYPE,EPOCH,MEAN_MOTION,ECCENTRICITY,INCLINATION,RA_OF_ASC_NODE,ARG_OF_PERICENTER,MEAN_ANOMALY,BSTAR,MEAN_MOTION_DOT,MEAN_MOTION_DDOT,TLE_LINE0,TLE_LINE1,TLE_LINE2,SEMIMAJOR_AXIS,PERIOD,APOGEE,PERIGEE,DECAYED
52874.0,STARLINK-4210,PAYLOAD,2024-07-01 22:23:07,15.08856675,0.000112,53.2147,258.3603,83.1382,276.9738,0.00058717,9.073e-05,0.0,0 STARLINK-4210,1 52874U 22062AW  24183.93272479  .00009073  00000-0  58717-3 0  9999,2 52874  53.2147 258.3603 0001120  83.1382 276.9738 15.08856675113105,6917.829,95.436,540.469,538.92,0.0
52874.0,STARLINK-4210,PAYLOAD,2024-07-02 04:44:40,15.0883786,0.0001242,53.2138,257.1716,93.6619,266.4515,-0.00010651,-1.982e-05,0.0,0 STARLINK-4210,1 52874U 22062AW  24184.19768754 -.00001982  00000-0 -10651-3 0  9992,2 52874  53.2138 257.1716 0001242  93.6619 266.4515 15.08837860113631,6917.887,95.438,540.611,538.893,0.0
52874.0,STARLINK-4210,PAYLOAD,2024-07-02 14:16:58,15.08844764,0.0001047,53.2148,255.388,92.0726,268.0386,0.00041101,6.26e-05,0.0,0 STARLINK-4210,1 52874U 22062AW  24184.59512641  .00006260  00000-0  41101-3 0  9994,2 52874  53.2148 255.3880 0001047  92.0726 268.0386 15.08844764113207,6917.866,95.437,540.455,539.007,0.0
52874.0,STARLINK-4210,PAYLOAD,2024-07-03 10:56:59,15.08846152,0.0001258,53.2148,251.5224,85.78,274.3336,0.00033659,5.074e-05,0.0,0 STARLINK-4210,1 52874U 22062AW  24185.45624645  .00005074  00000-0  33659-3 0  9999,2 52874  53.2148 251.5224 0001258  85.7800 274.3336 15.08846152113829,6917.862,95.437,540.597,538.856,0.0
52874.0,STARLINK-4210,PAYLOAD,2024-07-04 04:26:14,15.0884355,0.0001279,53.2148,248.2515,85.3245,274.7893,0.00016052,2.268e-05,0.0,0 STARLINK-4210,1 52874U 22062AW  24186.18488634  .00002268  00000-0  16052-3 0  9996,2 52874  53.2148 248.2515 0001279  85.3245 274.7893 15.08843550113930,6917.87,95.437,540.619,538.85,0.0
52874.0,STARLINK-4210,PAYLOAD,2024-07-04 13:58:33,15.08839579,0.0001245,53.2155,246.4674,86.7584,273.355,4.5545e-05,4.37e-06,0.0,0 STARLINK-4210,1 52874U 22062AW  24186.58232804  .00000437  00000-0  45545-4 0  9992,2 52874  53.2155 246.4674 0001245  86.7584 273.3550 15.08839579113502,6917.882,95.438,540.608,538.885,0.0
52874.0,STARLINK-4210,PAYLOAD,2024-07-05 10:38:33,15.08842187,0.000121,53.2162,242.6011,88.9367,271.1763,5.4042e-05,5.72e-06,0.0,0 STARLINK-4210,1 52874U 22062AW  24187.44344586  .00000572  00000-0  54042-4 0  9991,2 52874  53.2162 242.6011 0001210  88.9367 271.1763 15.08842187114128,6917.874,95.437,540.576,538.902,0.0
52874.0,STARLINK-4210,PAYLOAD,2024-07-05 20:10:51,15.08848837,0.0001267,53.2167,240.8169,90.6558,269.458,0.00011618,1.562e-05,0.0,0 STARLINK-4210,1 52874U 22062AW  24187.84087921  .00001562  00000-0  11618-3 0  9993,2 52874  53.2167 240.8169 0001267  90.6558 269.4580 15.08848837113697,6917.853,95.437,540.595,538.842,0.0
52874.0,STARLINK-4210,PAYLOAD,2024-07-06 10:29:21,15.08832751,0.0001572,53.2184,238.1461,100.8116,259.3054,6.1074e-05,6.84e-06,0.0,0 STARLINK-4210,1 52874U 22062AW  24188.43705205  .00000684  00000-0  61074-4 0  9997,2 52874  53.2184 238.1461 0001572 100.8116 259.3054 15.08832751114271,6917.903,95.438,540.855,538.68,0.0
52874.0,STARLINK-4210,PAYLOAD,2024-07-06 20:01:39,15.08838344,0.0001569,53.2186,236.3619,97.2855,262.8316,8.1431e-05,1.008e-05,0.0,0 STARLINK-4210,1 52874U 22062AW  24188.83448820  .00001008  00000-0  81431-4 0  9998,2 52874  53.2186 236.3619 0001569  97.2855 262.8316 15.08838344113849,6917.885,95.438,540.836,538.665,0.0
52874.0,STARLINK-4210,PAYLOAD,2024-07-07 08:44:45,15.08831991,0.0001614,53.2182,233.9832,105.4804,254.6366,-4.708e-06,-3.63e-06,0.0,0 STARLINK-4210,1 52874U 22062AW  24189.36441505 -.00000363  00000-0 -47080-5 0  9998,2 52874  53.2182 233.9832 0001614 105.4804 254.6366 15.08831991113926,6917.905,95.438,540.886,538.653,0.0
52874.0,STARLINK-4210,PAYLOAD,2024-07-08 11:46:18,15.08836836,0.0001581,53.2176,228.9278,106.2845,253.8321,0.00014364,1.999e-05,0.0,0 STARLINK-4210,1 52874U 22062AW  24190.49048955  .00001999  00000-0  14364-3 0  9997,2 52874  53.2176 228.9278 0001581 106.2845 253.8321 15.08836836114582,6917.89,95.438,540.849,538.661,0.0
52874.0,STARLINK-4210,PAYLOAD,2024-07-08 19:43:13,15.08847776,0.0001399,53.2166,227.4363,82.6342,277.481,0.00012114,1.641e-05,0.0,0 STARLINK-4210,1 52874U 22062AW  24190.82168306  .00001641  00000-0  12114-3 0  9992,2 52874  53.2166 227.4363 0001399  82.6342 277.4810 15.08847776114632,6917.857,95.437,540.689,538.754,0.0
52874.0,STARLINK-4210,PAYLOAD,2024-07-09 11:37:05,15.08835848,0.00014,53.2165,224.4617,95.9074,264.2077,7.791e-05,9.52e-06,0.0,0 STARLINK-4210,1 52874U 22062AW  24191.48409259  .00000952  00000-0  77910-4 0  9990,2 52874  53.2165 224.4617 0001400  95.9074 264.2077 15.08835848114739,6917.893,95.438,540.727,538.79,0.0
52874.0,STARLINK-4210,PAYLOAD,2024-07-10 08:17:06,15.08842377,0.0001331,53.2155,220.5969,88.8932,271.2213,1.3626e-05,-7.1e-07,0.0,0 STARLINK-4210,1 52874U 22062AW  24192.34521079 -.00000071  00000-0  13626-4 0  9998,2 52874  53.2155 220.5969 0001331  88.8932 271.2213 15.08842377114377,6917.873,95.437,540.659,538.817,0.0
52874.0,STARLINK-4210,PAYLOAD,2024-07-11 11:18:39,15.08840087,0.0001387,53.216,215.5413,91.6391,268.476,6.5912e-05,7.61e-06,0.0,0 STARLINK-4210,1 52874U 22062AW  24193.47129025  .00000761  00000-0  65912-4 0  9998,2 52874  53.2160 215.5413 0001387  91.6391 268.4760 15.08840087114543,6917.88,95.438,540.705,538.786,0.0
52874.0,STARLINK-4210,PAYLOAD,2024-07-12 07:58:40,15.08837249,0.0001349,53.2159,211.675,91.7054,268.4092,1.8489e-05,6e-08,0.0,0 STARLINK-4210,1 52874U 22062AW  24194.33241427  .00000006  00000-0  18489-4 0  9994,2 52874  53.2159 211.6750 0001349  91.7054 268.4092 15.08837249115160,6917.889,95.438,540.687,538.821,0.0
52874.0,STARLINK-4210,PAYLOAD,2024-07-13 07:49:27,15.08839579,0.0001299,53.2158,207.2154,90.6909,269.4232,4.0689e-05,3.6e-06,0.0,0 STARLINK-4210,1 52874U 22062AW  24195.32601355  .00000360  00000-0  40689-4 0  9994,2 52874  53.2158 207.2154 0001299  90.6909 269.4232 15.08839579114826,6917.882,95.438,540.645,538.848,0.0
52874.0,STARLINK-4210,PAYLOAD,2024-07-13 17:21:46,15.08841618,0.00013,53.2158,205.4313,90.244,269.8701,5.5032e-05,5.88e-06,0.0,0 STARLINK-4210,1 52874U 22062AW  24195.72345203  .00000588  00000-0  55032-4 0  9995,2 52874  53.2158 205.4313 0001300  90.2440 269.8701 15.08841618115375,6917.875,95.437,540.64,538.841,0.0
52874.0,STARLINK-4210,PAYLOAD,2024-07-14 07:40:14,15.08838914,0.0001349,53.2163,202.7557,91.7613,268.3533,8.1922e-05,1.016e-05,0.0,0 STARLINK-4210,1 52874U 22062AW  24196.31961437  .00001016  00000-0  81922-4 0  9998,2 52874  53.2163 202.7557 0001349  91.7613 268.3533 15.08838914114979,6917.884,95.438,540.682,538.815,0.0
52874.0,STARLINK-4210,PAYLOAD,2024-07-14 17:12:33,15.08842214,0.0001362,53.2165,200.9715,91.43,268.6848,9.2033e-05,1.177e-05,0.0,0 STARLINK-4210,1 52874U 22062AW  24196.71705212  .00001177  00000-0  92033-4 0  9992,2 52874  53.2165 200.9715 0001362  91.4300 268.6848 15.08842214115030,6917.874,95.437,540.681,538.796,0.0
52874.0,STARLINK-4210,PAYLOAD,2024-07-15 04:20:16,15.08832849,0.000145,53.2173,198.8902,91.5948,268.521,5.6086e-07,-2.79e-06,0.0,0 STARLINK-4210,1 52874U 22062AW  24197.18074208 -.00000279  00000-0  56086-6 0  9991,2 52874  53.2173 198.8902 0001450  91.5948 268.5210 15.08832849115595,6917.902,95.438,540.77,538.764,0.0
52874.0,STARLINK-4210,PAYLOAD,2024-07-15 09:06:25,15.08835465,0.0001474,53.2171,197.9982,91.7796,268.3365,2.0855e-05,4.4e-07,0.0,0 STARLINK-4210,1 52874U 22062AW  24197.37946030  .00000044  00000-0  20855-4 0  9995,2 52874  53.2171 197.9982 0001474  91.7796 268.3365 15.08835465115136,6917.894,95.438,540.779,538.74,0.0
52874.0,STARLINK-4210,PAYLOAD,2024-07-15 17:03:20,15.08839732,0.0001461,53.2171,196.5112,90.5186,269.5974,4.1263e-05,3.69e-06,0.0,0 STARLINK-4210,1 52874U 22062AW  24197.71065770  .00000369  00000-0  41263-4 0  9992,2 52874  53.2171 196.5112 0001461  90.5186 269.5974 15.08839732115671,6917.881,95.438,540.757,538.736,0.0
52874.0,STARLINK-4210,PAYLOAD,2024-07-16 08:57:12,15.08840205,0.0001484,53.2167,193.5371,88.5241,271.5922,5.9052e-05,6.52e-06,0.0,0 STARLINK-4210,1 52874U 22062AW  24198.37305689  .00000652  00000-0  59052-4 0  9991,2 52874  53.2167 193.5371 0001484  88.5241 271.5922 15.08840205115284,6917.88,95.438,540.771,538.718,0.0
52874.0,STARLINK-4210,PAYLOAD,2024-07-17 05:37:12,15.08842127,0.0001421,53.216,189.671,89.0322,271.0833,0.00012923,1.769e-05,0.0,0 STARLINK-4210,1 52874U 22062AW  24199.23417283  .00001769  00000-0  12923-3 0  9996,2 52874  53.2160 189.6710 0001421  89.0322 271.0833 15.08842127115907,6917.874,95.437,540.722,538.756,0.0
52874.0,STARLINK-4210,PAYLOAD,2024-07-17 08:47:58,15.08844619,0.0001382,53.2159,189.0758,88.6707,271.4443,0.0001178,1.588e-05,0.0,0 STARLINK-4210,1 52874U 22062AW  24199.36665153  .00001588  00000-0  11780-3 0  9990,2 52874  53.2159 189.0758 0001382  88.6707 271.4443 15.08844619115436,6917.866,95.437,540.687,538.775,0.0
52874.0,STARLINK-4210,PAYLOAD,2024-07-18 08:38:45,15.08843201,0.0001358,53.2163,184.6128,99.4602,260.6543,3.4275e-05,2.58e-06,0.0,0 STARLINK-4210,1 52874U 22062AW  24200.36025364  .00000258  00000-0  34275-4 0  9995,2 52874  53.2163 184.6128 0001358  99.4602 260.6543 15.08843201116078,6917.871,95.437,540.675,538.796,0.0
52874.0,STARLINK-4210,PAYLOAD,2024-07-18 16:35:41,15.08845415,0.0001346,53.2164,183.1273,96.7949,263.3196,5.4307e-05,5.77e-06,0.0,0 STARLINK-4210,1 52874U 22062AW  24200.69145124  .00000577  00000-0  54307-4 0  9990,2 52874  53.2164 183.1273 0001346  96.7949 263.3196 15.08845415115639,6917.864,95.437,540.66,538.798,0.0
52874.0,STARLINK-4210,PAYLOAD,2024-07-19 05:18:46,15.0884008,0.0001535,53.2177,180.7482,103.9074,256.2089,4.0265e-06,-2.24e-06,0.0,0 STARLINK-4210,1 52874U 22062AW  24201.22137578 -.00000224  00000-0  40265-5 0  9993,2 52874  53.2177 180.7482 0001535 103.9074 256.2089 15.08840080115712,6917.88,95.438,540.807,538.683,0.0
